COSMOS 2251 DEB         
1 47074U 93036BYE 26091.79600862  .00004636  00000+0  14125-2 0  9992
2 47074  74.0920 107.2057 0136612 108.4503  67.6059 14.36977665 42629
COSMOS 2251 DEB         
1 47116U 93036BYJ 26088.09039969  .00034652  00000+0  24511-2 0  9993
2 47116  74.0224  23.9331 0017394 111.5766 264.7572 15.04584963611075
COSMOS 2251 DEB         
1 53093U 93036BYP 26095.25309066  .00003690  00000+0  11171-2 0  9994
2 53093  74.0340  90.9492 0019459 154.5282 205.6838 14.42546536193621
